     2.10           GLONASS NAV DATA                        RINEX VERSION / TYPE
TPP                 Reference Data Shop 2016-10-19 07:58:47 PGM / RUN BY / DATE 
                                                            COMMENT             
                                                            COMMENT             
                                                            COMMENT             
  2016    10    11    -.717118382454E-07                    CORR TO SYSTEM TIME 
    17                                                      LEAP SECONDS        
                                                            END OF HEADER       
06 16 10 12 19 45  0.0  .979229807854E-04  .000000000000E+00  .702000000000E+05
     .126544628906E+05  .181472682953E+01  .931322574615E-09  .000000000000E+00
    -.801843261719E+03  .242792606354E+01  .931322574615E-09 -.400000000000E+01
     .221160346680E+05 -.952545166016E+00 -.279396772385E-08  .000000000000E+00
07 16 10 12 19 45  0.0  .265995040536E-04 -.909494701773E-12  .702000000000E+05
     .906430664063E+03  .154588508606E+01 -.186264514923E-08  .000000000000E+00
    -.154337729492E+05  .230534362793E+01  .000000000000E+00  .500000000000E+01
     .203292890625E+05  .168116378784E+01 -.186264514923E-08  .000000000000E+00
08 16 10 12 12 15  0.0 -.268351286650E-04  .000000000000E+00  .432000000000E+05
    -.169801469727E+05 -.201640415192E+01 -.186264514923E-08  .000000000000E+00
     .113088720703E+05  .576371192932E+00  .186264514923E-08  .600000000000E+01
     .153654907227E+05 -.266027450562E+01 -.279396772385E-08  .000000000000E+00
09 16 10 12 19 45  0.0  .309552997351E-04  .181898940355E-11  .702000000000E+05
     .244829975586E+05  .771356582642E+00  .279396772385E-08  .000000000000E+00
    -.444894482422E+04 -.215101242065E+00  .372529029846E-08 -.600000000000E+01
    -.569631591797E+04  .345501518250E+01  .000000000000E+00  .000000000000E+00
10 16 10 12 14 15  0.0 -.332901254296E-04 -.272848410532E-11  .504000000000E+05
    -.114338784180E+05 -.661005020142E+00  .931322574615E-09  .000000000000E+00
    -.130720517578E+05 -.247728633881E+01 -.186264514923E-08 -.700000000000E+01
     .186338452148E+05 -.214969635010E+01 -.931322574615E-09  .000000000000E+00
11 16 10 12 15 15  0.0  .144196674228E-04  .000000000000E+00  .540000000000E+05
    -.135693750000E+05 -.135328578949E+01  .931322574615E-09  .000000000000E+00
    -.489227539063E+04 -.254102134705E+01 -.931322574615E-09  .000000000000E+00
     .210485327148E+05 -.146868801117E+01 -.186264514923E-08  .000000000000E+00
12 16 10 12 16 45  0.0 -.417558476329E-04  .000000000000E+00  .594000000000E+05
    -.139362807617E+05 -.228654003143E+01  .000000000000E+00  .000000000000E+00
     .144949121094E+04 -.181734466553E+01 -.931322574615E-09 -.100000000000E+01
     .212579418945E+05 -.138990116119E+01 -.186264514923E-08  .000000000000E+00
13 16 10 12 18 15  0.0  .535044819117E-05  .000000000000E+00  .648000000000E+05
    -.141279355469E+05 -.271320343018E+01  .000000000000E+00  .000000000000E+00
     .558508642578E+04 -.731594085693E+00 -.186264514923E-08 -.200000000000E+01
     .204765336914E+05 -.167269802094E+01 -.186264514923E-08  .000000000000E+00
15 16 10 12 19 45  0.0  .947806984186E-05  .000000000000E+00  .702000000000E+05
     .413258349609E+04 -.314595699310E+01  .931322574615E-09  .000000000000E+00
     .101546982422E+05  .240910530090E+00  .000000000000E+00  .000000000000E+00
     .230392558594E+05  .466794967651E+00 -.279396772385E-08  .000000000000E+00
16 16 10 12 19 45  0.0  .467915087938E-04  .000000000000E+00  .702000000000E+05
     .216977807617E+05 -.175360584259E+01  .279396772385E-08  .000000000000E+00
     .393782958984E+04  .267477035522E-01  .279396772385E-08 -.100000000000E+01
     .127180146484E+05  .298933982849E+01 -.279396772385E-08  .000000000000E+00
17 16 10 12 14 45  0.0 -.270381569862E-04  .000000000000E+00  .522000000000E+05
     .220283300781E+05 -.125582885742E+01 -.186264514923E-08  .000000000000E+00
     .857649072266E+04 -.397022247314E+00  .000000000000E+00  .400000000000E+01
    -.952758203125E+04 -.326366996765E+01  .000000000000E+00  .000000000000E+00
18 16 10 12 16 15  0.0  .122658908367E-03  .181898940355E-11  .576000000000E+05
     .228702041016E+05 -.155554771423E+01 -.931322574615E-09  .000000000000E+00
     .350535644531E+03  .160211563110E+00  .931322574615E-09 -.300000000000E+01
    -.113444794922E+05 -.312356281281E+01  .931322574615E-09  .000000000000E+00
19 16 10 12 17 15  0.0 -.166178680956E-03  .000000000000E+00  .612000000000E+05
     .232810717773E+05 -.813729286194E+00 -.186264514923E-08  .000000000000E+00
    -.859187695313E+04  .175875663757E+00  .931322574615E-09  .300000000000E+01
    -.589045800781E+04 -.347637081146E+01  .000000000000E+00  .000000000000E+00
20 16 10 12 18 15  0.0 -.257292762399E-03 -.909494701773E-12  .648000000000E+05
     .191541254883E+05 -.152380943298E+00 -.186264514923E-08  .000000000000E+00
    -.168817626953E+05 -.155165672302E+00  .931322574615E-09  .200000000000E+01
    -.830434570313E+02 -.359069538116E+01  .000000000000E+00  .000000000000E+00
21 16 10 12 19 15  0.0  .857440754771E-04  .909494701773E-12  .684000000000E+05
     .116859990234E+05  .169425010681E+00 -.186264514923E-08  .000000000000E+00
    -.222094653320E+05 -.619182586670E+00  .931322574615E-09  .400000000000E+01
     .446680615234E+04 -.352050304413E+01  .000000000000E+00  .000000000000E+00
22 16 10 12 19 45  0.0  .214674510062E-03  .909494701773E-12  .702000000000E+05
     .184172167969E+04  .730099678040E+00 -.279396772385E-08  .000000000000E+00
    -.204704238281E+05 -.195144939423E+01  .000000000000E+00 -.300000000000E+01
     .151901958008E+05 -.270614242554E+01 -.931322574615E-09  .000000000000E+00
23 16 10 12 19 45  0.0  .206381082535E-04  .000000000000E+00  .702000000000E+05
    -.944678027344E+04  .133785057068E+01 -.279396772385E-08  .000000000000E+00
    -.497565380859E+04 -.288066959381E+01 -.931322574615E-09  .300000000000E+01
     .231529697266E+05 -.736675262451E-01 -.186264514923E-08  .000000000000E+00
24 16 10 12 19 45  0.0 -.141820870340E-03  .000000000000E+00  .711300000000E+05
    -.143437158203E+05  .114297485352E+01 -.931322574615E-09  .000000000000E+00
     .115889331055E+05 -.213447475433E+01 -.186264514923E-08  .200000000000E+01
     .175930942383E+05  .233419799805E+01 -.931322574615E-09  .000000000000E+00
05 16 10 12 20 15  0.0 -.404343008995E-04 -.181898940355E-11  .720000000000E+05
     .187922246094E+05  .506494522095E+00  .465661287308E-08  .000000000000E+00
     .167068559570E+05  .332640647888E+00  .931322574615E-09  .100000000000E+01
     .430330859375E+04 -.349538612366E+01 -.931322574615E-09  .000000000000E+00
23 16 10 12 20 15  0.0  .206381082535E-04  .000000000000E+00  .720000000000E+05
    -.746354443359E+04  .853133201599E+00 -.279396772385E-08  .000000000000E+00
    -.102364023438E+05 -.291371059418E+01  .000000000000E+00  .300000000000E+01
     .221259497070E+05 -.106005764008E+01 -.186264514923E-08  .000000000000E+00
24 16 10 12 20 15  0.0 -.141821801662E-03  .000000000000E+00  .720000000000E+05
    -.124261220703E+05  .950584411621E+00 -.186264514923E-08  .000000000000E+00
     .717729101563E+04 -.273404407501E+01 -.931322574615E-09  .200000000000E+01
     .210583217773E+05  .149094009399E+01 -.186264514923E-08  .000000000000E+00
15 16 10 12 20 15  0.0  .947713851929E-05  .000000000000E+00  .720000000000E+05
    -.150320800781E+04 -.306383419037E+01  .000000000000E+00  .000000000000E+00
     .110178217773E+05  .709791183472E+00  .000000000000E+00  .000000000000E+00
     .229793530273E+05 -.532654762268E+00 -.186264514923E-08  .000000000000E+00
16 16 10 12 20 15  0.0  .467924401164E-04  .000000000000E+00  .720000000000E+05
     .179499160156E+05 -.237139797211E+01  .279396772385E-08  .000000000000E+00
     .433122753906E+04  .435278892517E+00  .931322574615E-09 -.100000000000E+01
     .175343916016E+05  .232734870911E+01 -.279396772385E-08  .000000000000E+00
09 16 10 12 20 15  0.0  .309599563479E-04  .272848410532E-11  .720000000000E+05
     .250721826172E+05 -.116732597351E+00  .372529029846E-08  .000000000000E+00
    -.481027734375E+04 -.145416259766E+00  .279396772385E-08 -.600000000000E+01
     .662238281250E+03  .356427192688E+01 -.931322574615E-09  .000000000000E+00
06 16 10 12 20 15  0.0  .979248434305E-04  .000000000000E+00  .720000000000E+05
     .160376606445E+05  .190179252625E+01  .186264514923E-08  .000000000000E+00
     .311014843750E+04  .189286327362E+01  .931322574615E-09 -.400000000000E+01
     .195671918945E+05 -.186114120483E+01 -.279396772385E-08  .000000000000E+00
07 16 10 12 20 15  0.0  .265967100859E-04 -.909494701773E-12  .720000000000E+05
     .417900146484E+04  .207066822052E+01 -.931322574615E-09  .000000000000E+00
    -.112697739258E+05  .227500629425E+01  .931322574615E-09  .500000000000E+01
     .225335688477E+05  .752180099487E+00 -.279396772385E-08  .000000000000E+00
22 16 10 12 20 15  0.0  .214677304029E-03  .909494701773E-12  .720000000000E+05
     .267260986328E+04  .215495109558E+00 -.186264514923E-08  .000000000000E+00
    -.234645957031E+05 -.133631515503E+01  .931322574615E-09 -.300000000000E+01
     .979803759766E+04 -.324638175964E+01 -.931322574615E-09  .000000000000E+00
05 16 10 12 20 45  0.0 -.404389575124E-04 -.181898940355E-11  .738000000000E+05
     .191549687500E+05 -.132592201233E+00  .465661287308E-08  .000000000000E+00
     .167238613281E+05 -.285759925842E+00  .000000000000E+00  .100000000000E+01
    -.207344873047E+04 -.354390048981E+01  .000000000000E+00  .000000000000E+00
